start=new Date('2022-06-26T00:00:00.000Z').valueOf();
sats=[{"FILE":"3502557","DECAY_DATE":null,"MEAN_MOTION":"15.08844693","CENTER_NAME":"EARTH","ELEMENT_SET_NO":"999","TLE_LINE2":"2 50816  53.2169 122.4833 0002609  57.6539 302.4705 15.08844693 26167","OBJECT_TYPE":"PAYLOAD","REV_AT_EPOCH":"2616","PERIAPSIS":"537.926","ARG_OF_PERICENTER":"57.6539","EPHEMERIS_TYPE":"0","RA_OF_ASC_NODE":"122.4833","EPOCH":"2022-06-25T19:13:07.055040","NORAD_CAT_ID":"50816","BSTAR":"-0.00006587400000","RCS_SIZE":"LARGE","PERIOD":"95.437","LAUNCH_DATE":"2022-01-06","TIME_SYSTEM":"UTC","MEAN_MOTION_DDOT":"0.0000000000000","ECCENTRICITY":"0.00026090","GP_ID":"206856988","MEAN_ANOMALY":"302.4705","APOAPSIS":"541.536","CLASSIFICATION_TYPE":"U","OBJECT_NAME":"STARLINK-3342","SEMIMAJOR_AXIS":"6917.866","COUNTRY_CODE":"US","MEAN_ELEMENT_THEORY":"SGP4","TLE_LINE1":"1 50816U 22001P   22176.80077610 -.00001337  00000-0 -65874-4 0  9992","OBJECT_ID":"2022-001P","REF_FRAME":"TEME","SITE":"AFETR","INCLINATION":"53.2169","MEAN_MOTION_DOT":"-0.00001337"},{"MEAN_MOTION":"15.08844791","CENTER_NAME":"EARTH","ELEMENT_SET_NO":"999","TLE_LINE2":"2 50817  53.2171 122.3524 0002630  56.8081 303.3163 15.08844791 26172","OBJECT_TYPE":"PAYLOAD","FILE":"3502557","DECAY_DATE":null,"RCS_SIZE":"LARGE","PERIOD":"95.437","LAUNCH_DATE":"2022-01-06","TIME_SYSTEM":"UTC","PERIAPSIS":"537.911","REV_AT_EPOCH":"2617","ARG_OF_PERICENTER":"56.8081","RA_OF_ASC_NODE":"122.3524","EPHEMERIS_TYPE":"0","EPOCH":"2022-06-25T19:50:13.364448","NORAD_CAT_ID":"50817","BSTAR":"-0.00002371300000","CLASSIFICATION_TYPE":"U","OBJECT_NAME":"STARLINK-3341","MEAN_MOTION_DDOT":"0.0000000000000","ECCENTRICITY":"0.00026300","GP_ID":"206857238","MEAN_ANOMALY":"303.3163","APOAPSIS":"541.550","SITE":"AFETR","INCLINATION":"53.2171","MEAN_MOTION_DOT":"-0.00000666","COUNTRY_CODE":"US","SEMIMAJOR_AXIS":"6917.866","TLE_LINE1":"1 50817U 22001Q   22176.82654357 -.00000666  00000-0 -23713-4 0  9994","MEAN_ELEMENT_THEORY":"SGP4","OBJECT_ID":"2022-001Q","REF_FRAME":"TEME"},{"MEAN_MOTION_DDOT":"0.0000000000000","ECCENTRICITY":"0.00031200","GP_ID":"206855987","MEAN_ANOMALY":"304.0989","APOAPSIS":"541.935","CLASSIFICATION_TYPE":"U","OBJECT_NAME":"STARLINK-3336","SEMIMAJOR_AXIS":"6917.912","COUNTRY_CODE":"US","TLE_LINE1":"1 50818U 22001R   22176.80813858 -.00001170  00000-0 -55421-4 0  9998","MEAN_ELEMENT_THEORY":"SGP4","OBJECT_ID":"2022-001R","REF_FRAME":"TEME","SITE":"AFETR","INCLINATION":"53.2146","MEAN_MOTION_DOT":"-0.00001170","FILE":"3502557","DECAY_DATE":null,"MEAN_MOTION":"15.08829725","CENTER_NAME":"EARTH","ELEMENT_SET_NO":"999","TLE_LINE2":"2 50818  53.2146 122.4384 0003120  56.0299 304.0989 15.08829725 26161","OBJECT_TYPE":"PAYLOAD","ARG_OF_PERICENTER":"56.0299","PERIAPSIS":"537.618","REV_AT_EPOCH":"2616","EPHEMERIS_TYPE":"0","RA_OF_ASC_NODE":"122.4384","EPOCH":"2022-06-25T19:23:43.173312","NORAD_CAT_ID":"50818","BSTAR":"-0.00005542100000","RCS_SIZE":"LARGE","PERIOD":"95.438","LAUNCH_DATE":"2022-01-06","TIME_SYSTEM":"UTC"},{"OBJECT_NAME":"STARLINK-3327","CLASSIFICATION_TYPE":"U","MEAN_ANOMALY":"301.5888","APOAPSIS":"541.100","MEAN_MOTION_DDOT":"0.0000000000000","GP_ID":"206856237","ECCENTRICITY":"0.00019320","MEAN_MOTION_DOT":"-0.00000609","SITE":"AFETR","INCLINATION":"53.2175","REF_FRAME":"TEME","MEAN_ELEMENT_THEORY":"SGP4","TLE_LINE1":"1 50819U 22001S   22176.81549327 -.00000609  00000-0 -20153-4 0  9997","SEMIMAJOR_AXIS":"6917.898","COUNTRY_CODE":"US","OBJECT_ID":"2022-001S","TLE_LINE2":"2 50819  53.2175 122.3946 0001932  58.5293 301.5888 15.08834102 26173","OBJECT_TYPE":"PAYLOAD","CENTER_NAME":"EARTH","MEAN_MOTION":"15.08834102","ELEMENT_SET_NO":"999","DECAY_DATE":null,"FILE":"3502557","RCS_SIZE":"LARGE","LAUNCH_DATE":"2022-01-06","PERIOD":"95.438","TIME_SYSTEM":"UTC","EPHEMERIS_TYPE":"0","RA_OF_ASC_NODE":"122.3946","BSTAR":"-0.00002015300000","NORAD_CAT_ID":"50819","EPOCH":"2022-06-25T19:34:18.618528","PERIAPSIS":"538.427","REV_AT_EPOCH":"2617","ARG_OF_PERICENTER":"58.5293"},{"CLASSIFICATION_TYPE":"U","OBJECT_NAME":"STARLINK-3339","ECCENTRICITY":"0.00024200","GP_ID":"206857488","MEAN_MOTION_DDOT":"0.0000000000000","APOAPSIS":"541.421","MEAN_ANOMALY":"314.6028","INCLINATION":"53.2170","SITE":"AFETR","MEAN_MOTION_DOT":"0.00000050","OBJECT_ID":"2022-001T","SEMIMAJOR_AXIS":"6917.882","COUNTRY_CODE":"US","MEAN_ELEMENT_THEORY":"SGP4","TLE_LINE1":"1 50820U 22001T   22176.79708192  .00000050  00000-0  21238-4 0  9996","REF_FRAME":"TEME","ELEMENT_SET_NO":"999","MEAN_MOTION":"15.08839501","CENTER_NAME":"EARTH","OBJECT_TYPE":"PAYLOAD","TLE_LINE2":"2 50820  53.2170 122.4997 0002420  45.5161 314.6028 15.08839501 26168","FILE":"3502557","DECAY_DATE":null,"LAUNCH_DATE":"2022-01-06","TIME_SYSTEM":"UTC","PERIOD":"95.438","RCS_SIZE":"LARGE","PERIAPSIS":"538.073","REV_AT_EPOCH":"2616","ARG_OF_PERICENTER":"45.5161","EPOCH":"2022-06-25T19:07:47.877888","NORAD_CAT_ID":"50820","BSTAR":"0.00002123800000","RA_OF_ASC_NODE":"122.4997","EPHEMERIS_TYPE":"0"},{"REF_FRAME":"TEME","COUNTRY_CODE":"US","SEMIMAJOR_AXIS":"6917.853","TLE_LINE1":"1 50821U 22001U   22176.84860584  .00000396  00000-0  43002-4 0  9993","MEAN_ELEMENT_THEORY":"SGP4","OBJECT_ID":"2022-001U","MEAN_MOTION_DOT":"0.00000396","SITE":"AFETR","INCLINATION":"53.2184","MEAN_ANOMALY":"304.4902","APOAPSIS":"541.477","MEAN_MOTION_DDOT":"0.0000000000000","ECCENTRICITY":"0.00025430","GP_ID":"206857738","OBJECT_NAME":"STARLINK-3346","CLASSIFICATION_TYPE":"U","EPHEMERIS_TYPE":"0","RA_OF_ASC_NODE":"122.2757","EPOCH":"2022-06-25T20:21:59.544576","NORAD_CAT_ID":"50821","BSTAR":"0.00004300200000","PERIAPSIS":"537.959","REV_AT_EPOCH":"2617","ARG_OF_PERICENTER":"55.6331","RCS_SIZE":"LARGE","LAUNCH_DATE":"2022-01-06","PERIOD":"95.437","TIME_SYSTEM":"UTC","DECAY_DATE":null,"FILE":"3502557","TLE_LINE2":"2 50821  53.2184 122.2757 0002543  55.6331 304.4902 15.08848917 26173","OBJECT_TYPE":"PAYLOAD","MEAN_MOTION":"15.08848917","CENTER_NAME":"EARTH","ELEMENT_SET_NO":"999"},{"APOAPSIS":"541.760","MEAN_ANOMALY":"305.8724","GP_ID":"206856487","ECCENTRICITY":"0.00028340","MEAN_MOTION_DDOT":"0.0000000000000","OBJECT_NAME":"STARLINK-3343","CLASSIFICATION_TYPE":"U","REF_FRAME":"TEME","OBJECT_ID":"2022-001V","TLE_LINE1":"1 50822U 22001V   22176.59101925  .00002992  00000-0  20609-3 0  9994","MEAN_ELEMENT_THEORY":"SGP4","SEMIMAJOR_AXIS":"6917.935","COUNTRY_CODE":"US","MEAN_MOTION_DOT":"0.00002992","INCLINATION":"53.2181","SITE":"AFETR","DECAY_DATE":null,"FILE":"3502557","OBJECT_TYPE":"PAYLOAD","TLE_LINE2":"2 50822  53.2181 123.4304 0002834  54.2531 305.8724 15.08822180 26139","ELEMENT_SET_NO":"999","CENTER_NAME":"EARTH","MEAN_MOTION":"15.08822180","BSTAR":"0.00020609000000","EPOCH":"2022-06-25T14:11:04.063200","NORAD_CAT_ID":"50822","EPHEMERIS_TYPE":"0","RA_OF_ASC_NODE":"123.4304","PERIAPSIS":"537.839","ARG_OF_PERICENTER":"54.2531","REV_AT_EPOCH":"2613","LAUNCH_DATE":"2022-01-06","PERIOD":"95.439","TIME_SYSTEM":"UTC","RCS_SIZE":"LARGE"},{"REV_AT_EPOCH":"2617","PERIAPSIS":"537.694","ARG_OF_PERICENTER":"58.4776","EPHEMERIS_TYPE":"0","RA_OF_ASC_NODE":"122.3639","BSTAR":"-0.00003249900000","EPOCH":"2022-06-25T19:44:54.825792","NORAD_CAT_ID":"50823","RCS_SIZE":"LARGE","LAUNCH_DATE":"2022-01-06","PERIOD":"95.438","TIME_SYSTEM":"UTC","FILE":"3502557","DECAY_DATE":null,"CENTER_NAME":"EARTH","MEAN_MOTION":"15.08833881","ELEMENT_SET_NO":"999","TLE_LINE2":"2 50823  53.2193 122.3639 0002993  58.4776 301.6508 15.08833881 26173","OBJECT_TYPE":"PAYLOAD","MEAN_ELEMENT_THEORY":"SGP4","TLE_LINE1":"1 50823U 22001W   22176.82285678 -.00000806  00000-0 -32499-4 0  9994","SEMIMAJOR_AXIS":"6917.899","COUNTRY_CODE":"US","OBJECT_ID":"2022-001W","REF_FRAME":"TEME","SITE":"AFETR","INCLINATION":"53.2193","MEAN_MOTION_DOT":"-0.00000806","MEAN_MOTION_DDOT":"0.0000000000000","GP_ID":"206856737","ECCENTRICITY":"0.00029930","MEAN_ANOMALY":"301.6508","APOAPSIS":"541.835","CLASSIFICATION_TYPE":"U","OBJECT_NAME":"STARLINK-3334"},{"OBJECT_TYPE":"PAYLOAD","TLE_LINE2":"2 50824  53.2189 122.5527 0002681  60.5439 299.5820 15.08836916 26164","ELEMENT_SET_NO":"999","CENTER_NAME":"EARTH","MEAN_MOTION":"15.08836916","DECAY_DATE":null,"FILE":"3502557","LAUNCH_DATE":"2022-01-06","TIME_SYSTEM":"UTC","PERIOD":"95.438","RCS_SIZE":"LARGE","BSTAR":"0.00005574100000","NORAD_CAT_ID":"50824","EPOCH":"2022-06-25T18:51:55.003392","EPHEMERIS_TYPE":"0","RA_OF_ASC_NODE":"122.5527","PERIAPSIS":"537.900","ARG_OF_PERICENTER":"60.5439","REV_AT_EPOCH":"2616","OBJECT_NAME":"STARLINK-3340","CLASSIFICATION_TYPE":"U","APOAPSIS":"541.610","MEAN_ANOMALY":"299.5820","GP_ID":"206856989","ECCENTRICITY":"0.00026810","MEAN_MOTION_DDOT":"0.0000000000000","MEAN_MOTION_DOT":"0.00000599","INCLINATION":"53.2189","SITE":"AFETR","REF_FRAME":"TEME","OBJECT_ID":"2022-001X","TLE_LINE1":"1 50824U 22001X   22176.78605328  .00000599  00000-0  55741-4 0  9990","MEAN_ELEMENT_THEORY":"SGP4","SEMIMAJOR_AXIS":"6917.890","COUNTRY_CODE":"US"},{"MEAN_MOTION_DDOT":"0.0000000000000","ECCENTRICITY":"0.00026160","GP_ID":"206857239","MEAN_ANOMALY":"307.1237","APOAPSIS":"541.535","CLASSIFICATION_TYPE":"U","OBJECT_NAME":"STARLINK-3332","COUNTRY_CODE":"US","SEMIMAJOR_AXIS":"6917.860","TLE_LINE1":"1 50825U 22001Y   22176.79340517  .00000355  00000-0  40400-4 0  9994","MEAN_ELEMENT_THEORY":"SGP4","OBJECT_ID":"2022-001Y","REF_FRAME":"TEME","SITE":"AFETR","INCLINATION":"53.2174","MEAN_MOTION_DOT":"0.00000355","FILE":"3502557","DECAY_DATE":null,"MEAN_MOTION":"15.08846632","CENTER_NAME":"EARTH","ELEMENT_SET_NO":"999","TLE_LINE2":"2 50825  53.2174 122.5184 0002616  52.9994 307.1237 15.08846632 26161","OBJECT_TYPE":"PAYLOAD","ARG_OF_PERICENTER":"52.9994","PERIAPSIS":"537.915","REV_AT_EPOCH":"2616","EPHEMERIS_TYPE":"0","RA_OF_ASC_NODE":"122.5184","NORAD_CAT_ID":"50825","EPOCH":"2022-06-25T19:02:30.206688","BSTAR":"0.00004040000000","RCS_SIZE":"LARGE","LAUNCH_DATE":"2022-01-06","PERIOD":"95.437","TIME_SYSTEM":"UTC"}];
